     2.100          NAVIGATION                              RINEX VERSION / TYPE
fic2rin                                 08/31/2016 00:30:17 PGM / RUN BY / DATE
                                                            END OF HEADER
17 16  8 30  9 59 44.0 -.202991068363D-03  .454747350886D-12  .000000000000D+00
     .900000000000D+01 -.290625000000D+01  .461126350621D-08  .153238382262D+00
    -.726431608200D-07  .111146932468D-01  .193715095520D-05  .515373688698D+04
     .208784000000D+06 -.763684511185D-07  .136282713193D+01  .670552253723D-07
     .977012263294D+00  .351750000000D+03 -.192391325450D+01 -.860035823944D-08
    -.162149611325D-09  .100000000000D+01  .191200000000D+04  .000000000000D+00
     .240000000000D+01  .000000000000D+00 -.107102096081D-07  .900000000000D+01
     .201606000000D+06  .400000000000D+01
27 16  8 30  9 59 44.0  .132967252284D-03  .466116034659D-11  .000000000000D+00
     .460000000000D+02  .712500000000D+01  .476555564738D-08  .150589662287D+00
     .292435288429D-06  .380249903537D-02  .124052166939D-05  .515364585876D+04
     .208784000000D+06 -.111758708954D-07  .131235241615D+01  .502914190292D-07
     .971967459055D+00  .357125000000D+03  .348071089187D+00 -.855749931134D-08
    -.130362572982D-09  .100000000000D+01  .191200000000D+04  .000000000000D+00
     .240000000000D+01  .000000000000D+00  .186264514923D-08  .460000000000D+02
     .201606000000D+06  .400000000000D+01
32 16  8 30  9 59 44.0 -.970014370978D-04 -.134150468512D-10  .000000000000D+00
     .230000000000D+02  .450000000000D+01  .504163857591D-08  .530198273595D+00
     .447034835815D-07  .658769393340D-03  .452250242233D-05  .515362996864D+04
     .208784000000D+06 -.409781932831D-07 -.183087161200D+01  .223517417908D-07
     .958785272478D+00  .291968750000D+03 -.230200326761D+01 -.833284709653D-08
     .116790579082D-09  .100000000000D+01  .191200000000D+04  .000000000000D+00
     .240000000000D+01  .000000000000D+00  .931322574615D-09  .230000000000D+02
     .201606000000D+06  .400000000000D+01
 1 16  8 30 10  0  0.0  .321678817272D-04  .136424205266D-11  .000000000000D+00
     .850000000000D+02 -.119156250000D+03  .414195824347D-08 -.195029237680D+01
    -.609084963799D-05  .586117082275D-02  .866316258907D-05  .515364234161D+04
     .208800000000D+06 -.540167093277D-07  .237057803826D+01 -.106170773506D-06
     .965287561519D+00  .215843750000D+03  .532851636872D+00 -.785104131310D-08
    -.289654922433D-09  .100000000000D+01  .191200000000D+04  .000000000000D+00
     .240000000000D+01  .000000000000D+00  .512227416039D-08  .850000000000D+02
     .201606000000D+06  .400000000000D+01
 2 16  8 30 10  0  0.0  .559135805815D-03 -.466116034659D-11  .000000000000D+00
     .620000000000D+02 -.100093750000D+03  .476877006699D-08 -.152039132638D+01
    -.522285699844D-05  .158998987172D-01  .851787626743D-05  .515362664223D+04
     .208800000000D+06  .437721610069D-06  .232302163486D+01  .117346644402D-06
     .944059524463D+00  .205156250000D+03 -.208948699127D+01 -.810140888477D-08
    -.384301721995D-09  .100000000000D+01  .191200000000D+04  .000000000000D+00
     .240000000000D+01  .000000000000D+00 -.204890966415D-07  .620000000000D+02
     .201606000000D+06  .400000000000D+01
 3 16  8 30 10  0  0.0 -.840094871819D-04 -.250111042988D-11  .000000000000D+00
     .360000000000D+02  .168125000000D+02  .425374861428D-08 -.243041193045D+01
     .951811671257D-06  .150236068293D-03  .109504908323D-04  .515363669777D+04
     .208800000000D+06  .670552253723D-07 -.287135150384D+01  .204890966415D-07
     .959825958752D+00  .168031250000D+03 -.130784889453D+00 -.785747015231D-08
     .572166690182D-09  .100000000000D+01  .191200000000D+04  .000000000000D+00
     .240000000000D+01  .000000000000D+00  .139698386192D-08  .360000000000D+02
     .201606000000D+06  .400000000000D+01
 4 16  8 30 10  0  0.0 -.260457862169D-03 -.227373675443D-12  .000000000000D+00
     .750000000000D+02  .112406250000D+03  .535772317068D-08  .128330885044D+01
     .595115125179D-05  .842637510505D-02  .955909490585D-05  .515367730713D+04
     .208800000000D+06 -.108033418655D-06  .293638959104D+00  .126659870148D-06
     .983385555144D+00  .207343750000D+03  .900583321002D+00 -.797890378194D-08
     .269654089318D-09  .100000000000D+01  .191200000000D+04  .000000000000D+00
     .340000000000D+01  .630000000000D+02 -.195577740669D-07  .750000000000D+02
     .201606000000D+06  .400000000000D+01
 5 16  8 30 10  0  0.0 -.945474021137D-04  .261479726760D-11  .000000000000D+00
     .620000000000D+02  .299687500000D+02  .458947688442D-08  .965551284687D+00
     .171735882759D-05  .471508491319D-02  .105630606413D-04  .515359012794D+04
     .208800000000D+06 -.139698386192D-06 -.288452433213D+01  .931322574615D-07
     .946870896059D+00  .168718750000D+03  .490779902061D+00 -.803569186168D-08
     .485734518507D-09  .100000000000D+01  .191200000000D+04  .000000000000D+00
     .240000000000D+01  .000000000000D+00 -.107102096081D-07  .620000000000D+02
     .201606000000D+06  .400000000000D+01
 6 16  8 30 10  0  0.0  .239542219788D-03  .511590769747D-11  .000000000000D+00
     .106000000000D+03 -.107500000000D+03  .424946272147D-08 -.167339894502D+01
    -.570900738239D-05  .231613288634D-03  .874884426594D-05  .515376309395D+04
     .208800000000D+06  .242143869400D-07  .236216767102D+01  .465661287308D-07
     .965093746817D+00  .215093750000D+03 -.136662355649D+01 -.801390523989D-08
    -.372158359032D-09  .100000000000D+01  .191200000000D+04  .000000000000D+00
     .240000000000D+01  .000000000000D+00  .419095158577D-08  .106000000000D+03
     .201606000000D+06  .400000000000D+01
 7 16  8 30 10  0  0.0  .431093852967D-03 -.284217094304D-11  .000000000000D+00
     .690000000000D+02 -.300312500000D+02  .439625455022D-08 -.264235909508D+01
    -.170245766640D-05  .997574185021D-02  .110007822514D-04  .515363388634D+04
     .208800000000D+06 -.428408384323D-07 -.753976394669D+00 -.184401869774D-06
     .965302045871D+00  .173312500000D+03 -.264070377401D+01 -.778425281680D-08
    -.387516141603D-09  .100000000000D+01  .191200000000D+04  .000000000000D+00
     .240000000000D+01  .000000000000D+00 -.111758708954D-07  .690000000000D+02
     .201606000000D+06  .400000000000D+01
 8 16  8 30 10  0  0.0 -.298824161291D-04 -.147792889038D-11  .000000000000D+00
     .110000000000D+02  .890625000000D+01  .486377402428D-08  .978321751988D+00
     .249594449997D-06  .170047406573D-02  .135973095894D-05  .515373769760D+04
     .208800000000D+06  .558793544769D-08  .130891183910D+01  .260770320892D-07
     .963875174093D+00  .354656250000D+03 -.102157992945D+01 -.854392731744D-08
    -.118576367753D-09  .100000000000D+01  .191200000000D+04  .000000000000D+00
     .240000000000D+01  .000000000000D+00  .512227416039D-08  .110000000000D+02
     .201606000000D+06  .400000000000D+01
 9 16  8 30 10  0  0.0  .196606852114D-03  .727595761418D-11  .000000000000D+00
     .780000000000D+02  .665625000000D+01  .510056960205D-08  .581713267493D-01
     .195577740669D-06  .505571602844D-03  .398419797421D-05  .515378747559D+04
     .208800000000D+06  .130385160446D-07 -.183274163092D+01  .335276126862D-07
     .954215831765D+00  .295500000000D+03  .211121914697D+01 -.845499504162D-08
     .159292349451D-09  .100000000000D+01  .191200000000D+04  .000000000000D+00
     .240000000000D+01  .000000000000D+00  .139698386192D-08  .780000000000D+02
     .201606000000D+06  .400000000000D+01
10 16  8 30 10  0  0.0 -.908477231860D-04 -.534328137292D-11  .000000000000D+00
     .160000000000D+02  .179375000000D+02  .432410868791D-08  .212742059458D+01
     .985339283943D-06  .168294541072D-02  .107884407043D-04  .515368336678D+04
     .208800000000D+06  .204890966415D-07 -.287527592203D+01  .204890966415D-07
     .960048503702D+00  .168906250000D+03 -.281417733424D+01 -.788604277105D-08
     .553951645738D-09  .100000000000D+01  .191200000000D+04  .000000000000D+00
     .240000000000D+01  .000000000000D+00  .232830643654D-08  .160000000000D+02
     .201606000000D+06  .400000000000D+01
11 16  8 30 10  0  0.0 -.661693047732D-03 -.238742359215D-11  .000000000000D+00
     .540000000000D+02 -.119281250000D+03  .584595779332D-08 -.253420554978D+01
    -.597164034843D-05  .167882211972D-01  .353157520294D-05  .515367953682D+04
     .208800000000D+06  .216066837311D-06  .198686267505D+01  .167638063431D-07
     .897577827491D+00  .274968750000D+03  .156361923022D+01 -.862000191482D-08
    -.361086469272D-09  .100000000000D+01  .191200000000D+04  .000000000000D+00
     .240000000000D+01  .000000000000D+00 -.121071934700D-07  .540000000000D+02
     .201606000000D+06  .400000000000D+01
13 16  8 30 10  0  0.0 -.407081097364D-04 -.227373675443D-11  .000000000000D+00
     .860000000000D+02 -.138125000000D+02  .474484049879D-08 -.168002345501D+01
    -.583007931709D-06  .403450336307D-02  .459887087345D-05  .515367659187D+04
     .208800000000D+06 -.838190317154D-07 -.171051022745D+01  .670552253723D-07
     .970476297879D+00  .297625000000D+03  .197391305880D+01 -.821569935971D-08
    -.475019786481D-10  .100000000000D+01  .191200000000D+04  .000000000000D+00
     .240000000000D+01  .000000000000D+00 -.111758708954D-07  .860000000000D+02
     .201606000000D+06  .400000000000D+01
14 16  8 30 10  0  0.0 -.324822030962D-04 -.193267624127D-11  .000000000000D+00
     .630000000000D+02 -.218750000000D+01  .499806533234D-08 -.259084219646D+00
    -.111758708954D-06  .895295629743D-02  .479817390442D-05  .515404202652D+04
     .208800000000D+06 -.651925802231D-07 -.174818431787D+01  .145286321640D-06
     .962984327203D+00  .292312500000D+03 -.195422351563D+01 -.843642283945D-08
     .725030200418D-10  .100000000000D+01  .191200000000D+04  .000000000000D+00
     .240000000000D+01  .000000000000D+00 -.931322574615D-08  .630000000000D+02
     .201606000000D+06  .400000000000D+01
